{
    "links": {
        "self": "http://www.neowsapp.com/rest/v1/neo/3653520?api_key=iIulBulltgU6a56xZRHN4H3l9WmuAYTsLGpBGhQ2"
    },
    "id": "3653520",
    "neo_reference_id": "3653520",
    "name": "(2013 VZ4)",
    "designation": "2013 VZ4",
    "nasa_jpl_url": "http://ssd.jpl.nasa.gov/sbdb.cgi?sstr=3653520",
    "absolute_magnitude_h": 22.9,
    "estimated_diameter": {
        "kilometers": {
            "estimated_diameter_min": 0.0699125232,
            "estimated_diameter_max": 0.1563291544
        },
        "meters": {
            "estimated_diameter_min": 69.9125232246,
            "estimated_diameter_max": 156.3291544087
        },
        "miles": {
            "estimated_diameter_min": 0.0434416145,
            "estimated_diameter_max": 0.097138403
        },
        "feet": {
            "estimated_diameter_min": 229.3718026961,
            "estimated_diameter_max": 512.8909429502
        }
    },
    "is_potentially_hazardous_asteroid": false,
    "close_approach_data": [
        {
            "close_approach_date": "1993-06-10",
            "close_approach_date_full": "1993-Jun-10 11:21",
            "epoch_date_close_approach": 739711260000,
            "relative_velocity": {
                "kilometers_per_second": "23.0969413935",
                "kilometers_per_hour": "83148.9890167548",
                "miles_per_hour": "51665.5482032163"
            },
            "miss_distance": {
                "astronomical": "0.4381165825",
                "lunar": "170.4273505925",
                "kilometers": "65541307.553679275",
                "miles": "40725480.048252995"
            },
            "orbiting_body": "Earth"
        },
        {
            "close_approach_date": "2013-09-28",
            "close_approach_date_full": "2013-Sep-28 20:24",
            "epoch_date_close_approach": 1380399840000,
            "relative_velocity": {
                "kilometers_per_second": "10.4286115552",
                "kilometers_per_hour": "37543.0015988845",
                "miles_per_hour": "23327.7611879291"
            },
            "miss_distance": {
                "astronomical": "0.0399930775",
                "lunar": "15.5573071475",
                "kilometers": "5982879.208744925",
                "miles": "3717588.753432965"
            },
            "orbiting_body": "Earth"
        },
        {
            "close_approach_date": "2016-06-08",
            "close_approach_date_full": "2016-Jun-08 01:17",
            "epoch_date_close_approach": 1465348620000,
            "relative_velocity": {
                "kilometers_per_second": "24.3009103153",
                "kilometers_per_hour": "87483.2771350606",
                "miles_per_hour": "54358.7062842825"
            },
            "miss_distance": {
                "astronomical": "0.4751550949",
                "lunar": "184.8353319161",
                "kilometers": "71082190.116687863",
                "miles": "44168424.8214359894"
            },
            "orbiting_body": "Earth"
        },
        {
            "close_approach_date": "2033-11-06",
            "close_approach_date_full": "2033-Nov-06 02:53",
            "epoch_date_close_approach": 2014858380000,
            "relative_velocity": {
                "kilometers_per_second": "24.2019249912",
                "kilometers_per_hour": "87126.9299684579",
                "miles_per_hour": "54137.286012901"
            },
            "miss_distance": {
                "astronomical": "0.4360632049",
                "lunar": "169.6285867061",
                "kilometers": "65234126.638413563",
                "miles": "40534606.6784226494"
            },
            "orbiting_body": "Earth"
        }
    ],
    "orbital_data": {
        "orbit_id": "13",
        "orbit_determination_date": "2017-04-06 08:43:48",
        "first_observation_date": "2013-11-04",
        "last_observation_date": "2013-11-28",
        "data_arc_in_days": 24,
        "observations_used": 31,
        "orbit_uncertainty": "6",
        "minimum_orbit_intersection": ".00847539",
        "jupiter_tisserand_invariant": "3.615",
        "epoch_osculation": "2459000.5",
        "eccentricity": ".5429387387182397",
        "semi_major_axis": "2.018954478535624",
        "inclination": "7.292138696629535",
        "ascending_node_longitude": "195.8418531095805",
        "orbital_period": "1047.823700321286",
        "perihelion_distance": ".9227858804299509",
        "perihelion_argument": "137.1828953725223",
        "aphelion_distance": "3.115123076641297",
        "perihelion_time": "2458634.517360025350",
        "mean_anomaly": "125.7403801331038",
        "mean_motion": ".3435692472785411",
        "equinox": "J2000",
        "orbit_class": {
            "orbit_class_type": "APO",
            "orbit_class_description": "Near-Earth asteroid orbits which cross the Earth’s orbit similar to that of 1862 Apollo",
            "orbit_class_range": "a (semi-major axis) > 1.0 AU; q (perihelion) < 1.017 AU"
        }
    },
    "is_sentry_object": false
}